[{"OBJECT_NAME":"OBJECT A","OBJECT_ID":"2024-203A","EPOCH":"2026-03-09T23:31:20.812800","MEAN_MOTION":15.27300571,"ECCENTRICITY":0.00108989,"INCLINATION":97.4288,"RA_OF_ASC_NODE":139.5608,"ARG_OF_PERICENTER":322.6893,"MEAN_ANOMALY":37.3588,"EPHEMERIS_TYPE":0,"CLASSIFICATION_TYPE":"U","NORAD_CAT_ID":61869,"ELEMENT_SET_NO":999,"REV_AT_EPOCH":7380,"BSTAR":0.00061472876,"MEAN_MOTION_DOT":0.00016411,"MEAN_MOTION_DDOT":0},{"OBJECT_NAME":"STARLINK-32570","OBJECT_ID":"2024-222Z","EPOCH":"2026-03-09T12:35:32.374464","MEAN_MOTION":15.27615801,"ECCENTRICITY":0.00016527,"INCLINATION":42.9984,"RA_OF_ASC_NODE":137.1204,"ARG_OF_PERICENTER":277.9857,"MEAN_ANOMALY":82.0807,"EPHEMERIS_TYPE":0,"CLASSIFICATION_TYPE":"U","NORAD_CAT_ID":62137,"ELEMENT_SET_NO":999,"REV_AT_EPOCH":7287,"BSTAR":0.0012306627,"MEAN_MOTION_DOT":0.00033796,"MEAN_MOTION_DDOT":0}]
